CCSDS_OMM_VERS = 2.0
CREATION_DATE  = 
ORIGINATOR     = 

OBJECT_NAME    = STARLINK-36875
OBJECT_ID      = 2026-057G
CENTER_NAME    = EARTH
REF_FRAME      = TEME
TIME_SYSTEM    = UTC
MEAN_ELEMENT_THEORY = SGP/SGP4

EPOCH          = 2026-03-28T04:00:01.999584
MEAN_MOTION    = 16.03334678
ECCENTRICITY   = .000124
INCLINATION    = 97.2810
RA_OF_ASC_NODE = 210.2265
ARG_OF_PERICENTER = 60.7506
MEAN_ANOMALY   = 285.1895

EPHEMERIS_TYPE = 0
CLASSIFICATION_TYPE = U
NORAD_CAT_ID   = 68300
ELEMENT_SET_NO = 999
REV_AT_EPOCH   = 218
BSTAR          = -.14553E-2
MEAN_MOTION_DOT = -.892106E-2
MEAN_MOTION_DDOT = .27567E-3

CCSDS_OMM_VERS = 2.0
CREATION_DATE  = 
ORIGINATOR     = 

OBJECT_NAME    = STARLINK-37099
OBJECT_ID      = 2026-057H
CENTER_NAME    = EARTH
REF_FRAME      = TEME
TIME_SYSTEM    = UTC
MEAN_ELEMENT_THEORY = SGP/SGP4

EPOCH          = 2026-03-28T04:00:01.999584
MEAN_MOTION    = 16.03601111
ECCENTRICITY   = .0001246
INCLINATION    = 97.2807
RA_OF_ASC_NODE = 210.2288
ARG_OF_PERICENTER = 62.6381
MEAN_ANOMALY   = 288.1288

EPHEMERIS_TYPE = 0
CLASSIFICATION_TYPE = U
NORAD_CAT_ID   = 68301
ELEMENT_SET_NO = 999
REV_AT_EPOCH   = 201
BSTAR          = -.14378E-2
MEAN_MOTION_DOT = -.895366E-2
MEAN_MOTION_DDOT = .27842E-3

CCSDS_OMM_VERS = 2.0
CREATION_DATE  = 
ORIGINATOR     = 

OBJECT_NAME    = STARLINK-37007
OBJECT_ID      = 2026-057J
CENTER_NAME    = EARTH
REF_FRAME      = TEME
TIME_SYSTEM    = UTC
MEAN_ELEMENT_THEORY = SGP/SGP4

EPOCH          = 2026-03-28T04:00:01.999584
MEAN_MOTION    = 16.03911078
ECCENTRICITY   = .0001207
INCLINATION    = 97.2804
RA_OF_ASC_NODE = 210.2313
ARG_OF_PERICENTER = 55.2176
MEAN_ANOMALY   = 301.1412

EPHEMERIS_TYPE = 0
CLASSIFICATION_TYPE = U
NORAD_CAT_ID   = 68302
ELEMENT_SET_NO = 999
REV_AT_EPOCH   = 223
BSTAR          = -.1407E-2
MEAN_MOTION_DOT = -.892446E-2
MEAN_MOTION_DDOT = .27776E-3

CCSDS_OMM_VERS = 2.0
CREATION_DATE  = 
ORIGINATOR     = 

OBJECT_NAME    = STARLINK-36300
OBJECT_ID      = 2026-057K
CENTER_NAME    = EARTH
REF_FRAME      = TEME
TIME_SYSTEM    = UTC
MEAN_ELEMENT_THEORY = SGP/SGP4

EPOCH          = 2026-03-28T04:00:01.999584
MEAN_MOTION    = 16.03766758
ECCENTRICITY   = .0001156
INCLINATION    = 97.2804
RA_OF_ASC_NODE = 210.2300
ARG_OF_PERICENTER = 59.6571
MEAN_ANOMALY   = 294.1353

EPHEMERIS_TYPE = 0
CLASSIFICATION_TYPE = U
NORAD_CAT_ID   = 68303
ELEMENT_SET_NO = 999
REV_AT_EPOCH   = 228
BSTAR          = -.14213E-2
MEAN_MOTION_DOT = -.893806E-2
MEAN_MOTION_DDOT = .27807E-3

CCSDS_OMM_VERS = 2.0
CREATION_DATE  = 
ORIGINATOR     = 

OBJECT_NAME    = STARLINK-36849
OBJECT_ID      = 2026-057L
CENTER_NAME    = EARTH
REF_FRAME      = TEME
TIME_SYSTEM    = UTC
MEAN_ELEMENT_THEORY = SGP/SGP4

EPOCH          = 2026-03-28T04:00:01.999584
MEAN_MOTION    = 16.04025262
ECCENTRICITY   = .000123
INCLINATION    = 97.2804
RA_OF_ASC_NODE = 210.2320
ARG_OF_PERICENTER = 61.4798
MEAN_ANOMALY   = 296.8532

EPHEMERIS_TYPE = 0
CLASSIFICATION_TYPE = U
NORAD_CAT_ID   = 68304
ELEMENT_SET_NO = 999
REV_AT_EPOCH   = 218
BSTAR          = -.14029E-2
MEAN_MOTION_DOT = -.895919E-2
MEAN_MOTION_DDOT = .28015E-3

CCSDS_OMM_VERS = 2.0
CREATION_DATE  = 
ORIGINATOR     = 

OBJECT_NAME    = STARLINK-36277
OBJECT_ID      = 2026-057M
CENTER_NAME    = EARTH
REF_FRAME      = TEME
TIME_SYSTEM    = UTC
MEAN_ELEMENT_THEORY = SGP/SGP4

EPOCH          = 2026-03-28T04:00:01.999584
MEAN_MOTION    = 16.04301276
ECCENTRICITY   = .0001308
INCLINATION    = 97.2800
RA_OF_ASC_NODE = 210.2336
ARG_OF_PERICENTER = 60.1599
MEAN_ANOMALY   = 302.8549

EPHEMERIS_TYPE = 0
CLASSIFICATION_TYPE = U
NORAD_CAT_ID   = 68305
ELEMENT_SET_NO = 999
REV_AT_EPOCH   = 234
BSTAR          = -.1419E-2
MEAN_MOTION_DOT = -.92107E-2
MEAN_MOTION_DDOT = .29588E-3

CCSDS_OMM_VERS = 2.0
CREATION_DATE  = 
ORIGINATOR     = 

OBJECT_NAME    = STARLINK-36307
OBJECT_ID      = 2026-057N
CENTER_NAME    = EARTH
REF_FRAME      = TEME
TIME_SYSTEM    = UTC
MEAN_ELEMENT_THEORY = SGP/SGP4

EPOCH          = 2026-03-28T04:00:01.999584
MEAN_MOTION    = 16.04134709
ECCENTRICITY   = .000128
INCLINATION    = 97.2804
RA_OF_ASC_NODE = 210.2330
ARG_OF_PERICENTER = 55.4529
MEAN_ANOMALY   = 304.8141

EPHEMERIS_TYPE = 0
CLASSIFICATION_TYPE = U
NORAD_CAT_ID   = 68306
ELEMENT_SET_NO = 999
REV_AT_EPOCH   = 228
BSTAR          = -.13852E-2
MEAN_MOTION_DOT = -.890427E-2
MEAN_MOTION_DDOT = .27734E-3

CCSDS_OMM_VERS = 2.0
CREATION_DATE  = 
ORIGINATOR     = 

OBJECT_NAME    = STARLINK-36264
OBJECT_ID      = 2026-057P
CENTER_NAME    = EARTH
REF_FRAME      = TEME
TIME_SYSTEM    = UTC
MEAN_ELEMENT_THEORY = SGP/SGP4

EPOCH          = 2026-03-28T04:00:01.999584
MEAN_MOTION    = 16.04481530
ECCENTRICITY   = .0001307
INCLINATION    = 97.2802
RA_OF_ASC_NODE = 210.2352
ARG_OF_PERICENTER = 52.8702
MEAN_ANOMALY   = 313.0933

EPHEMERIS_TYPE = 0
CLASSIFICATION_TYPE = U
NORAD_CAT_ID   = 68307
ELEMENT_SET_NO = 999
REV_AT_EPOCH   = 234
BSTAR          = -.14659E-2
MEAN_MOTION_DOT = -.961496E-2
MEAN_MOTION_DDOT = .32108E-3

CCSDS_OMM_VERS = 2.0
CREATION_DATE  = 
ORIGINATOR     = 

OBJECT_NAME    = STARLINK-37138
OBJECT_ID      = 2026-057Q
CENTER_NAME    = EARTH
REF_FRAME      = TEME
TIME_SYSTEM    = UTC
MEAN_ELEMENT_THEORY = SGP/SGP4

EPOCH          = 2026-03-28T04:00:01.999584
MEAN_MOTION    = 16.04582688
ECCENTRICITY   = .0001312
INCLINATION    = 97.2797
RA_OF_ASC_NODE = 210.2354
ARG_OF_PERICENTER = 53.6375
MEAN_ANOMALY   = 313.9955

EPHEMERIS_TYPE = 0
CLASSIFICATION_TYPE = U
NORAD_CAT_ID   = 68308
ELEMENT_SET_NO = 999
REV_AT_EPOCH   = 201
BSTAR          = -.14838E-2
MEAN_MOTION_DOT = -.979004E-2
MEAN_MOTION_DDOT = .3324E-3

CCSDS_OMM_VERS = 2.0
CREATION_DATE  = 
ORIGINATOR     = 

OBJECT_NAME    = STARLINK-37149
OBJECT_ID      = 2026-057R
CENTER_NAME    = EARTH
REF_FRAME      = TEME
TIME_SYSTEM    = UTC
MEAN_ELEMENT_THEORY = SGP/SGP4

EPOCH          = 2026-03-28T04:00:01.999584
MEAN_MOTION    = 16.04725111
ECCENTRICITY   = .0001374
INCLINATION    = 97.2794
RA_OF_ASC_NODE = 210.2363
ARG_OF_PERICENTER = 49.7936
MEAN_ANOMALY   = 319.9991

EPHEMERIS_TYPE = 0
CLASSIFICATION_TYPE = U
NORAD_CAT_ID   = 68309
ELEMENT_SET_NO = 999
REV_AT_EPOCH   = 212
BSTAR          = -.14985E-2
MEAN_MOTION_DOT = -.997053E-2
MEAN_MOTION_DDOT = .34442E-3

CCSDS_OMM_VERS = 2.0
CREATION_DATE  = 
ORIGINATOR     = 

OBJECT_NAME    = STARLINK-37148
OBJECT_ID      = 2026-057S
CENTER_NAME    = EARTH
REF_FRAME      = TEME
TIME_SYSTEM    = UTC
MEAN_ELEMENT_THEORY = SGP/SGP4

EPOCH          = 2026-03-28T04:00:01.999584
MEAN_MOTION    = 16.04990107
ECCENTRICITY   = .0001271
INCLINATION    = 97.2794
RA_OF_ASC_NODE = 210.2383
ARG_OF_PERICENTER = 54.0077
MEAN_ANOMALY   = 320.3855

EPHEMERIS_TYPE = 0
CLASSIFICATION_TYPE = U
NORAD_CAT_ID   = 68310
ELEMENT_SET_NO = 999
REV_AT_EPOCH   = 223
BSTAR          = -.15813E-2
MEAN_MOTION_DOT = -.1068402E-1
MEAN_MOTION_DDOT = .39264E-3

CCSDS_OMM_VERS = 2.0
CREATION_DATE  = 
ORIGINATOR     = 

OBJECT_NAME    = STARLINK-37140
OBJECT_ID      = 2026-057T
CENTER_NAME    = EARTH
REF_FRAME      = TEME
TIME_SYSTEM    = UTC
MEAN_ELEMENT_THEORY = SGP/SGP4

EPOCH          = 2026-03-28T04:00:01.999584
MEAN_MOTION    = 16.04865218
ECCENTRICITY   = .0001286
INCLINATION    = 97.2795
RA_OF_ASC_NODE = 210.2376
ARG_OF_PERICENTER = 58.2963
MEAN_ANOMALY   = 313.9504

EPHEMERIS_TYPE = 0
CLASSIFICATION_TYPE = U
NORAD_CAT_ID   = 68311
ELEMENT_SET_NO = 999
REV_AT_EPOCH   = 239
BSTAR          = -.1556E-2
MEAN_MOTION_DOT = -.1043657E-1
MEAN_MOTION_DDOT = .37542E-3

