STARLINK-36875          
1 68300U 26057G   26087.16668981 -.00892106  27567-3 -14553-2 0  9993
2 68300  97.2810 210.2265 0001240  60.7506 285.1895 16.03334678  2185
STARLINK-37099          
1 68301U 26057H   26087.16668981 -.00895366  27842-3 -14378-2 0  9996
2 68301  97.2807 210.2288 0001246  62.6381 288.1288 16.03601111  2015
STARLINK-37007          
1 68302U 26057J   26087.16668981 -.00892446  27776-3 -14070-2 0  9998
2 68302  97.2804 210.2313 0001207  55.2176 301.1412 16.03911078  2234
STARLINK-36300          
1 68303U 26057K   26087.16668981 -.00893806  27807-3 -14213-2 0  9994
2 68303  97.2804 210.2300 0001156  59.6571 294.1353 16.03766758  2284
STARLINK-36849          
1 68304U 26057L   26087.16668981 -.00895919  28015-3 -14029-2 0  9999
2 68304  97.2804 210.2320 0001230  61.4798 296.8532 16.04025262  2188
STARLINK-36277          
1 68305U 26057M   26087.16668981 -.00921070  29588-3 -14190-2 0  9993
2 68305  97.2800 210.2336 0001308  60.1599 302.8549 16.04301276  2349
STARLINK-36307          
1 68306U 26057N   26087.16668981 -.00890427  27734-3 -13852-2 0  9990
2 68306  97.2804 210.2330 0001280  55.4529 304.8141 16.04134709  2285
STARLINK-36264          
1 68307U 26057P   26087.16668981 -.00961496  32108-3 -14659-2 0  9993
2 68307  97.2802 210.2352 0001307  52.8702 313.0933 16.04481530  2347
STARLINK-37138          
1 68308U 26057Q   26087.16668981 -.00979004  33240-3 -14838-2 0  9995
2 68308  97.2797 210.2354 0001312  53.6375 313.9955 16.04582688  2017
STARLINK-37149          
1 68309U 26057R   26087.16668981 -.00997053  34442-3 -14985-2 0  9998
2 68309  97.2794 210.2363 0001374  49.7936 319.9991 16.04725111  2120
STARLINK-37148          
1 68310U 26057S   26087.16668981 -.01068402  39264-3 -15813-2 0  9996
2 68310  97.2794 210.2383 0001271  54.0077 320.3855 16.04990107  2231
STARLINK-37140          
1 68311U 26057T   26087.16668981 -.01043657  37542-3 -15560-2 0  9998
2 68311  97.2795 210.2376 0001286  58.2963 313.9504 16.04865218  2391
